NORAD_CAT_ID,OBJECT_NAME,OBJECT_TYPE,EPOCH,MEAN_MOTION,ECCENTRICITY,INCLINATION,RA_OF_ASC_NODE,ARG_OF_PERICENTER,MEAN_ANOMALY,BSTAR,MEAN_MOTION_DOT,MEAN_MOTION_DDOT,TLE_LINE0,TLE_LINE1,TLE_LINE2,SEMIMAJOR_AXIS,PERIOD,APOGEE,PERIGEE,DECAYED
55393.0,STARLINK-4786,PAYLOAD,2023-08-24 10:11:02,14.9832668,0.0003284,69.9989,244.8167,267.4715,92.6068,-1.1121e-05,-2.26e-06,0.0,0 STARLINK-4786,1 55393U 23014C   23236.42433215 -.00000226  00000-0 -11121-4 0  9997,2 55393  69.9989 244.8167 0003284 267.4715  92.6068 14.98326680 33013,6950.203,96.107,574.351,569.786,0.0
55393.0,STARLINK-4786,PAYLOAD,2023-08-25 10:13:02,14.98331537,0.0003316,69.9989,242.2918,267.7594,92.3185,-1.0503e-05,-2.18e-06,0.0,0 STARLINK-4786,1 55393U 23014C   23237.42572884 -.00000218  00000-0 -10503-4 0  9998,2 55393  69.9989 242.2918 0003316 267.7594  92.3185 14.98331537 32229,6950.188,96.107,574.358,569.748,0.0
55393.0,STARLINK-4786,PAYLOAD,2023-08-25 11:49:11,14.98331337,0.0003333,69.9988,242.1234,268.4169,91.6608,-1.3179e-05,-2.5e-06,0.0,0 STARLINK-4786,1 55393U 23014C   23237.49248899 -.00000250  00000-0 -13179-4 0  9999,2 55393  69.9988 242.1234 0003333 268.4169  91.6608 14.98331337 33178,6950.189,96.107,574.37,569.737,0.0
55393.0,STARLINK-4786,PAYLOAD,2023-08-26 10:15:03,14.98330397,0.0003346,69.9989,239.7664,269.2185,90.859,4.2937e-05,4.19e-06,0.0,0 STARLINK-4786,1 55393U 23014C   23238.42712759  .00000419  00000-0  42937-4 0  9993,2 55393  69.9989 239.7664 0003346 269.2185  90.8590 14.98330397 32376,6950.192,96.107,574.382,569.731,0.0
55393.0,STARLINK-4786,PAYLOAD,2023-08-26 11:51:11,14.98330612,0.0003355,69.9989,239.598,269.5498,90.5277,4.4195e-05,4.34e-06,0.0,0 STARLINK-4786,1 55393U 23014C   23238.49388738  .00000434  00000-0  44195-4 0  9991,2 55393  69.9989 239.5980 0003355 269.5498  90.5277 14.98330612 33320,6950.191,96.107,574.388,569.724,0.0
55393.0,STARLINK-4786,PAYLOAD,2023-08-27 08:40:56,14.98329326,0.0003284,69.9992,237.4099,270.0285,90.0498,-1.0453e-05,-2.18e-06,0.0,0 STARLINK-4786,1 55393U 23014C   23239.36176969 -.00000218  00000-0 -10453-4 0  9991,2 55393  69.9992 237.4099 0003284 270.0285  90.0498 14.98329326 33458,6950.195,96.107,574.342,569.778,0.0
55393.0,STARLINK-4786,PAYLOAD,2023-08-27 13:29:21,14.98329845,0.0003294,69.9991,236.9042,271.268,88.8102,-1.404e-05,-2.61e-06,0.0,0 STARLINK-4786,1 55393U 23014C   23239.56204950 -.00000261  00000-0 -14040-4 0  9999,2 55393  69.9991 236.9042 0003294 271.2680  88.8102 14.98329845 32544,6950.193,96.107,574.348,569.769,0.0
55393.0,STARLINK-4786,PAYLOAD,2023-08-28 16:43:37,14.98330805,0.0003309,69.9992,234.0425,270.8301,89.2478,-5.9381e-06,-1.64e-06,0.0,0 STARLINK-4786,1 55393U 23014C   23240.69696742 -.00000164  00000-0 -59381-5 0  9999,2 55393  69.9992 234.0425 0003309 270.8301  89.2478 14.98330805 32719,6950.19,96.107,574.355,569.756,0.0
55393.0,STARLINK-4786,PAYLOAD,2023-08-29 08:44:58,14.98330508,0.0003317,69.9991,232.3594,269.9585,90.1194,2.8817e-05,2.51e-06,0.0,0 STARLINK-4786,1 55393U 23014C   23241.36456613  .00000251  00000-0  28817-4 0  9999,2 55393  69.9991 232.3594 0003317 269.9585  90.1194 14.98330508 33759,6950.191,96.107,574.362,569.751,0.0
55393.0,STARLINK-4786,PAYLOAD,2023-08-30 00:46:19,14.98329445,0.00033,69.9992,230.676,269.454,90.6241,-6.8678e-06,-1.75e-06,0.0,0 STARLINK-4786,1 55393U 23014C   23242.03216710 -.00000175  00000-0 -68678-5 0  9993,2 55393  69.9992 230.6760 0003300 269.4540  90.6241 14.98329445 32917,6950.195,96.107,574.353,569.766,0.0
55393.0,STARLINK-4786,PAYLOAD,2023-08-30 16:47:39,14.98333845,0.0003347,69.9994,228.9927,270.6733,89.4043,-5.6469e-05,-7.67e-06,0.0,0 STARLINK-4786,1 55393U 23014C   23242.69976493 -.00000767  00000-0 -56469-4 0  9997,2 55393  69.9994 228.9927 0003347 270.6733  89.4043 14.98333845 33953,6950.181,96.107,574.372,569.72,0.0
55393.0,STARLINK-4786,PAYLOAD,2023-08-31 08:49:00,14.9832953,0.0003298,69.9993,227.3097,268.5918,91.4864,-1.1162e-05,-2.26e-06,0.0,0 STARLINK-4786,1 55393U 23014C   23243.36736628 -.00000226  00000-0 -11162-4 0  9997,2 55393  69.9993 227.3097 0003298 268.5918  91.4864 14.98329530 33117,6950.194,96.107,574.352,569.767,0.0
55393.0,STARLINK-4786,PAYLOAD,2023-09-01 08:50:58,14.98366702,0.0004347,69.9992,224.7875,267.38,92.6862,0.00032174,3.752e-05,0.0,0 STARLINK-4786,1 55393U 23014C   23244.36873256  .00003752  00000-0  32174-3 0  9997,2 55393  69.9992 224.7875 0004347 267.3800  92.6862 14.98366702 33263,6950.079,96.105,574.966,568.923,0.0
55393.0,STARLINK-4786,PAYLOAD,2023-09-02 08:53:02,14.98330174,0.0003349,69.9988,222.26,271.2044,88.8732,3.1168e-05,2.79e-06,0.0,0 STARLINK-4786,1 55393U 23014C   23245.37016381  .00000279  00000-0  31168-4 0  9991,2 55393  69.9988 222.2600 0003349 271.2044  88.8732 14.98330174 33416,6950.192,96.107,574.385,569.73,0.0
55393.0,STARLINK-4786,PAYLOAD,2023-09-02 15:17:34,14.98330338,0.0003348,69.9988,221.5867,271.2526,88.8249,3.005e-05,2.66e-06,0.0,0 STARLINK-4786,1 55393U 23014C   23245.63720356  .00000266  00000-0  30050-4 0  9999,2 55393  69.9988 221.5867 0003348 271.2526  88.8249 14.98330338 34390,6950.192,96.107,574.384,569.73,0.0
55393.0,STARLINK-4786,PAYLOAD,2023-09-03 00:54:25,14.98307987,0.0002958,69.9992,220.5769,264.1637,95.9184,-0.00021996,-2.715e-05,0.0,0 STARLINK-4786,1 55393U 23014C   23246.03779187 -.00002715  00000-0 -21996-3 0  9991,2 55393  69.9992 220.5769 0002958 264.1637  95.9184 14.98307987 33519,6950.261,96.108,574.182,570.07,0.0
55393.0,STARLINK-4786,PAYLOAD,2023-09-03 08:55:04,14.98324237,0.0003283,69.9993,219.7354,270.4272,89.6511,-2.628e-05,-4.07e-06,0.0,0 STARLINK-4786,1 55393U 23014C   23246.37157846 -.00000407  00000-0 -26280-4 0  9998,2 55393  69.9993 219.7354 0003283 270.4272  89.6511 14.98324237 33563,6950.211,96.107,574.357,569.794,0.0
55393.0,STARLINK-4786,PAYLOAD,2023-09-04 04:08:41,14.98332135,0.0003258,69.9996,217.7164,272.0444,88.0341,-1.7203e-05,-2.98e-06,0.0,0 STARLINK-4786,1 55393U 23014C   23247.17269761 -.00000298  00000-0 -17203-4 0  9990,2 55393  69.9996 217.7164 0003258 272.0444  88.0341 14.98332135 33687,6950.186,96.107,574.316,569.787,0.0
55393.0,STARLINK-4786,PAYLOAD,2023-09-04 05:44:49,14.98329767,0.0002743,70.001,217.5493,260.3219,99.7631,-1.3216e-05,-2.51e-06,0.0,0 STARLINK-4786,1 55393U 23014C   23247.23945874 -.00000251  00000-0 -13216-4 0  9992,2 55393  70.0010 217.5493 0002743 260.3219  99.7631 14.98329767 34632,6950.194,96.107,573.965,570.152,0.0
55393.0,STARLINK-4786,PAYLOAD,2023-09-05 07:22:57,14.98327376,0.0002958,70.0003,214.8547,268.0311,92.051,0.00038687,4.526e-05,0.0,0 STARLINK-4786,1 55393U 23014C   23248.30761009  .00004526  00000-0  38687-3 0  9992,2 55393  70.0003 214.8547 0002958 268.0311  92.0510 14.98327376 33859,6950.201,96.107,574.122,570.01,0.0
55393.0,STARLINK-4786,PAYLOAD,2023-09-06 09:01:06,14.98335444,0.0002675,70.0011,212.161,263.214,96.8714,6.3357e-05,6.63e-06,0.0,0 STARLINK-4786,1 55393U 23014C   23249.37576724  .00000663  00000-0  63357-4 0  9999,2 55393  70.0011 212.1610 0002675 263.2140  96.8714 14.98335444 34015,6950.176,96.107,573.9,570.182,0.0
55393.0,STARLINK-4786,PAYLOAD,2023-09-06 21:50:10,14.9834054,0.0002693,70.0011,210.8149,273.5932,86.4919,-0.00018142,-2.257e-05,0.0,0 STARLINK-4786,1 55393U 23014C   23249.90984875 -.00002257  00000-0 -18142-3 0  9992,2 55393  70.0011 210.8149 0002693 273.5932  86.4919 14.98340540 35038,6950.16,96.106,573.897,570.154,0.0
55393.0,STARLINK-4786,PAYLOAD,2023-09-07 09:03:06,14.98344294,0.0002252,70.0014,209.6365,266.0732,94.0169,-0.00020477,-2.536e-05,0.0,0 STARLINK-4786,1 55393U 23014C   23250.37716364 -.00002536  00000-0 -20477-3 0  9995,2 55393  70.0014 209.6365 0002252 266.0732  94.0169 14.98344294 34168,6950.149,96.106,573.579,570.449,0.0
55393.0,STARLINK-4786,PAYLOAD,2023-09-08 07:28:58,14.98345391,0.0003154,70.0006,207.2805,271.228,88.8517,1.3446e-05,6.7e-07,0.0,0 STARLINK-4786,1 55393U 23014C   23251.31179200  .00000067  00000-0  13446-4 0  9996,2 55393  70.0006 207.2805 0003154 271.2280  88.8517 14.98345391 35247,6950.145,96.106,574.202,569.818,0.0
55393.0,STARLINK-4786,PAYLOAD,2023-09-09 02:42:38,14.98309328,0.0003013,70.0006,205.2609,268.3867,91.6946,-0.00019555,-2.424e-05,0.0,0 STARLINK-4786,1 55393U 23014C   23252.11294622 -.00002424  00000-0 -19555-3 0  9998,2 55393  70.0006 205.2609 0003013 268.3867  91.6946 14.98309328 34426,6950.257,96.108,574.216,570.028,0.0
55393.0,STARLINK-4786,PAYLOAD,2023-09-09 05:54:54,14.9831403,0.000281,70.0013,204.9245,267.5896,92.4941,-0.00015799,-1.977e-05,0.0,0 STARLINK-4786,1 55393U 23014C   23252.24646342 -.00001977  00000-0 -15799-3 0  9990,2 55393  70.0013 204.9245 0002810 267.5896  92.4941 14.98314030 35389,6950.242,96.108,574.06,570.154,0.0
55393.0,STARLINK-4786,PAYLOAD,2023-09-09 13:55:34,14.9831868,0.0003002,70.0009,204.0836,265.5216,94.5601,-0.00012942,-1.636e-05,0.0,0 STARLINK-4786,1 55393U 23014C   23252.58026262 -.00001636  00000-0 -12942-3 0  9999,2 55393  70.0009 204.0836 0003002 265.5216  94.5601 14.98318680 34491,6950.228,96.108,574.179,570.006,0.0
55393.0,STARLINK-4786,PAYLOAD,2023-09-10 02:44:38,14.98328684,0.0003089,70.0007,202.7363,268.9402,91.1403,-7.2041e-05,-9.52e-06,0.0,0 STARLINK-4786,1 55393U 23014C   23253.11433776 -.00000952  00000-0 -72041-4 0  9998,2 55393  70.0007 202.7363 0003089 268.9402  91.1403 14.98328684 34575,6950.197,96.107,574.209,569.915,0.0
55393.0,STARLINK-4786,PAYLOAD,2023-09-10 07:33:02,14.98331536,0.0003048,70.0006,202.2307,270.4862,89.5947,-3.6408e-05,-5.27e-06,0.0,0 STARLINK-4786,1 55393U 23014C   23253.31461531 -.00000527  00000-0 -36408-4 0  9995,2 55393  70.0006 202.2307 0003048 270.4862  89.5947 14.98331536 35542,6950.188,96.107,574.172,569.935,0.0
55393.0,STARLINK-4786,PAYLOAD,2023-09-11 02:46:39,14.98327822,0.0002902,70.0008,200.2114,264.6991,95.3837,0.00030629,3.563e-05,0.0,0 STARLINK-4786,1 55393U 23014C   23254.11573038  .00003563  00000-0  30629-3 0  9999,2 55393  70.0008 200.2114 0002902 264.6991  95.3837 14.98327822 34729,6950.2,96.107,574.082,570.048,0.0
